H1 CPF 01  gfz 2022 01 31 13  5312 tandemx   
H2 1003001  6202 36605    2022 01 31 12 59 42 2022 02 05 00 00 42   120 1 1  0 0 0
H9
10 0 59614  48942.000000  0    1365808.067   4713226.129  -4842210.796
10 0 59614  49062.000000  0    1733189.278   5213881.639  -4163273.439
10 0 59614  49182.000000  0    2078326.628   5617577.809  -3411380.216
10 0 59614  49302.000000  0    2393421.278   5917644.867  -2599645.362
10 0 59614  49422.000000  0    2671088.529   6109344.675  -1742264.595
10 0 59614  49542.000000  0    2904526.315   6189956.498   -854267.182
10 0 59614  49662.000000  0    3087674.785   6158822.809     48751.497
10 0 59614  49782.000000  0    3215362.642   6017353.150    950910.164
10 0 59614  49902.000000  0    3283437.097   5768986.993   1836328.103
10 0 59614  50022.000000  0    3288873.737   5419116.506   2689413.077
10 0 59614  50142.000000  0    3229863.165   4974969.791   3495144.292
10 0 59614  50262.000000  0    3105873.413   4445457.388   4239343.254
10 0 59614  50382.000000  0    2917685.105   3840988.073   4908928.476
10 0 59614  50502.000000  0    2667396.058   3173254.839   5492147.010
10 0 59614  50622.000000  0    2358400.773   2455001.172   5978776.073
10 0 59614  50742.000000  0    1995345.206   1699773.165   6360297.745
10 0 59614  50862.000000  0    1584054.999    921659.120   6630043.193
10 0 59614  50982.000000  0    1131439.439    135024.380   6783301.810
10 0 59614  51102.000000  0     645374.355   -645752.522   6817398.290
10 0 59614  51222.000000  0     134564.851  -1406542.584   6731737.928
10 0 59614  51342.000000  0    -391610.796  -2133721.945   6527816.056
10 0 59614  51462.000000  0    -923273.195  -2814415.980   6209192.920
10 0 59614  51582.000000  0   -1450225.487  -3436727.574   5781433.650
10 0 59614  51702.000000  0   -1962146.202  -3989946.367   5252017.340
10 0 59614  51822.000000  0   -2448791.679  -4464737.842   4630214.738
10 0 59614  51942.000000  0   -2900203.626  -4853308.161   3926932.268
10 0 59614  52062.000000  0   -3306915.534  -5149539.669   3154523.539
10 0 59614  52182.000000  0   -3660152.109  -5349093.202   2326572.193
10 0 59614  52302.000000  0   -3952018.502  -5449476.013   1457651.471
10 0 59614  52422.000000  0   -4175675.661  -5450073.237    563063.022
10 0 59614  52542.000000  0   -4325496.355  -5352141.179   -341439.417
10 0 59614  52662.000000  0   -4397198.168  -5158763.096  -1239936.078
10 0 59614  52782.000000  0   -4387949.107  -4874767.269  -2116631.127
10 0 59614  52902.000000  0   -4296443.014  -4506609.346  -2956138.543
10 0 59614  53022.000000  0   -4122943.320  -4062223.320  -3743757.091
10 0 59614  53142.000000  0   -3869294.770  -3550846.152  -4465728.865
10 0 59614  53262.000000  0   -3538903.965  -2982820.758  -5109477.217
10 0 59614  53382.000000  0   -3136689.258  -2369381.690  -5663819.956
10 0 59614  53502.000000  0   -2669002.182  -1722429.574  -6119154.422
10 0 59614  53622.000000  0   -2143522.422  -1054298.730  -6467613.853
10 0 59614  53742.000000  0   -1569127.518   -377522.296  -6703191.893
10 0 59614  53862.000000  0    -955741.801    295399.697  -6821834.118
10 0 59614  53982.000000  0    -314167.593    952225.328  -6821499.810
10 0 59614  54102.000000  0     344100.987   1581187.917  -6702193.195
10 0 59614  54222.000000  0    1007077.726   2171200.965  -6465964.554
10 0 59614  54342.000000  0    1662498.511   2712050.558  -6116880.265
10 0 59614  54462.000000  0    2298043.669   3194570.959  -5660959.841
10 0 59614  54582.000000  0    2901566.390   3610800.351  -5106081.464
10 0 59614  54702.000000  0    3461323.038   3954115.049  -4461857.601
10 0 59614  54822.000000  0    3966203.075   4219340.656  -3739479.719
10 0 59614  54942.000000  0    4405953.273   4402836.248  -2951532.769
10 0 59614  55062.000000  0    4771390.635   4502549.083  -2111780.984
10 0 59614  55182.000000  0    5054598.717   4518038.165  -1234930.057
10 0 59614  55302.000000  0    5249103.354   4450465.765   -336367.603
10 0 59614  55422.000000  0    5350020.455   4302556.388    568111.768
10 0 59614  55542.000000  0    5354174.191   4078524.832   1462590.482
10 0 59614  55662.000000  0    5260182.956   3783973.229   2331316.546
10 0 59614  55782.000000  0    5068508.236   3425759.508   3158990.476
10 0 59614  55902.000000  0    4781464.423   3011841.562   3931042.609
10 0 59614  56022.000000  0    4403191.194   2551100.532   4633894.710
10 0 59614  56142.000000  0    3939590.670   2053148.708   5255199.673
10 0 59614  56262.000000  0    3398228.398   1528128.060   5784059.408
10 0 59614  56382.000000  0    2788201.721    986500.939   6211211.863
10 0 59614  56502.000000  0    2119980.692    438839.733   6529185.912
10 0 59614  56622.000000  0    1405224.947   -104378.350   6732425.299
10 0 59614  56742.000000  0     656578.047   -632970.686   6817382.171
10 0 59614  56862.000000  0    -112557.992  -1137240.204   6782574.980
10 0 59614  56982.000000  0    -888262.625  -1608152.608   6628611.951
10 0 59614  57102.000000  0   -1656348.033  -2037498.295   6358179.982
10 0 59614  57222.000000  0   -2402616.357  -2418034.841   5975999.706
10 0 59614  57342.000000  0   -3113120.839  -2743609.908   5488750.751
10 0 59614  57462.000000  0   -3774430.698  -3009264.275   4904962.767
10 0 59614  57582.000000  0   -4373889.942  -3211309.748   4234870.079
10 0 59614  57702.000000  0   -4899864.700  -3347380.960   3490236.043
10 0 59614  57822.000000  0   -5341975.077  -3416460.282   2684149.376
10 0 59614  57942.000000  0   -5691307.581  -3418876.109   1830794.748
10 0 59614  58062.000000  0   -5940601.625  -3356273.451    945199.003
10 0 59614  58182.000000  0   -6084404.105  -3231555.968     42959.808
10 0 59614  58302.000000  0   -6119189.093  -3048802.172   -860036.935
10 0 59614  58422.000000  0   -6043439.113  -2813157.455  -1747906.858
10 0 59614  58542.000000  0   -5857683.708  -2530703.868  -2605055.621
10 0 59614  58662.000000  0   -5564497.077  -2208312.828  -3416458.289
10 0 59614  58782.000000  0   -5168455.387  -1853484.427  -4167925.741
10 0 59614  58902.000000  0   -4676055.289  -1474177.342  -4846351.840
10 0 59614  59022.000000  0   -4095596.648  -1078633.770  -5439938.140
10 0 59614  59142.000000  0   -3437031.690   -675202.997  -5938391.533
10 0 59614  59262.000000  0   -2711785.810   -272168.294  -6333092.021
10 0 59614  59382.000000  0   -1932554.262    122419.381  -6617230.162
10 0 59614  59502.000000  0   -1113077.741    500897.310  -6785913.058
10 0 59614  59622.000000  0    -267902.731    856134.872  -6836239.029
10 0 59614  59742.000000  0     587870.969   1181664.365  -6767341.357
10 0 59614  59862.000000  0    1438852.409   1471794.745  -6580403.191
10 0 59614  59982.000000  0    2269631.102   1721709.855  -6278640.942
10 0 59614  60102.000000  0    3065051.196   1927547.898  -5867254.523
10 0 59614  60222.000000  0    3810484.470   2086460.679  -5353345.706
10 0 59614  60342.000000  0    4492098.159   2196652.658  -4745807.195
10 0 59614  60462.000000  0    5097115.598   2257399.302  -4055180.104
10 0 59614  60582.000000  0    5614061.991   2269043.141  -3293480.260
10 0 59614  60702.000000  0    6032990.468   2232967.746  -2473997.297
10 0 59614  60822.000000  0    6345685.182   2151550.134  -1611067.143
10 0 59614  60942.000000  0    6545832.772   2028091.730   -719820.599
10 0 59614  61062.000000  0    6629159.341   1866729.053    184085.501
10 0 59614  61182.000000  0    6593526.259   1672325.834   1084750.858
10 0 59614  61302.000000  0    6438984.442   1450350.617   1966317.577
10 0 59614  61422.000000  0    6167786.436   1206741.454   2813259.324
10 0 59614  61542.000000  0    5784351.530    947761.188   3610663.065
10 0 59614  61662.000000  0    5295187.873    679848.072   4344498.424
10 0 59614  61782.000000  0    4708772.678    409464.964   5001866.899
10 0 59614  61902.000000  0    4035396.645    142951.783   5571229.348
10 0 59614  62022.000000  0    3286972.540   -113617.277   6042606.618
10 0 59614  62142.000000  0    2476815.536   -354565.808   6407748.169
10 0 59614  62262.000000  0    1619401.313   -574735.620   6660270.561
10 0 59614  62382.000000  0     730103.791   -769593.736   6795764.352
10 0 59614  62502.000000  0    -175083.339   -935323.586   6811865.950
10 0 59614  62622.000000  0   -1079834.023  -1068898.690   6708295.102
10 0 59614  62742.000000  0   -1967783.059  -1168138.000   6486858.703
10 0 59614  62862.000000  0   -2822820.139  -1231741.118   6151420.583
10 0 59614  62982.000000  0   -3629381.270  -1259303.506   5707840.133
10 0 59614  63102.000000  0   -4372735.958  -1251312.611   5163877.345
10 0 59614  63222.000000  0   -5039262.344  -1209124.481   4529062.968
10 0 59614  63342.000000  0   -5616704.671  -1134920.054   3814535.748
10 0 59614  63462.000000  0   -6094406.752  -1031642.361   3032849.410
10 0 59614  63582.000000  0   -6463517.599   -902916.141   2197754.045
10 0 59614  63702.000000  0   -6717166.867   -752951.633   1323952.882
10 0 59614  63822.000000  0   -6850601.174   -586434.603    426836.731
10 0 59614  63942.000000  0   -6861277.454   -408405.370   -477795.159
10 0 59614  64062.000000  0   -6748912.385   -224129.748  -1374022.436
10 0 59614  64182.000000  0   -6515485.032    -38965.346  -2246092.385
10 0 59614  64302.000000  0   -6165196.141    141772.511  -3078702.786
10 0 59614  64422.000000  0   -5704383.180    312943.243  -3857276.810
10 0 59614  64542.000000  0   -5141392.233    469707.889  -4568219.636
10 0 59614  64662.000000  0   -4486413.528    607646.799  -5199153.001
10 0 59614  64782.000000  0   -3751284.538    722866.301  -5739123.713
10 0 59614  64902.000000  0   -2949266.275    812090.970  -6178784.312
10 0 59614  65022.000000  0   -2094797.921    872740.240  -6510542.642
10 0 59614  65142.000000  0   -1203235.403    902989.088  -6728682.106
10 0 59614  65262.000000  0    -290576.651    901811.385  -6829449.327
10 0 59614  65382.000000  0     626819.135    869004.926  -6811110.439
99
